{
    "links": {
        "self": "http://www.neowsapp.com/rest/v1/neo/54050996?api_key=iIulBulltgU6a56xZRHN4H3l9WmuAYTsLGpBGhQ2"
    },
    "id": "54050996",
    "neo_reference_id": "54050996",
    "name": "(2020 PL1)",
    "designation": "2020 PL1",
    "nasa_jpl_url": "http://ssd.jpl.nasa.gov/sbdb.cgi?sstr=54050996",
    "absolute_magnitude_h": 27.89,
    "estimated_diameter": {
        "kilometers": {
            "estimated_diameter_min": 0.0070235225,
            "estimated_diameter_max": 0.0157050737
        },
        "meters": {
            "estimated_diameter_min": 7.023522477,
            "estimated_diameter_max": 15.7050737
        },
        "miles": {
            "estimated_diameter_min": 0.0043642132,
            "estimated_diameter_max": 0.0097586774
        },
        "feet": {
            "estimated_diameter_min": 23.0430534833,
            "estimated_diameter_max": 51.5258339979
        }
    },
    "is_potentially_hazardous_asteroid": false,
    "close_approach_data": [
        {
            "close_approach_date": "1955-09-28",
            "close_approach_date_full": "1955-Sep-28 10:20",
            "epoch_date_close_approach": -450020400000,
            "relative_velocity": {
                "kilometers_per_second": "19.3676732617",
                "kilometers_per_hour": "69723.6237422903",
                "miles_per_hour": "43323.5483192025"
            },
            "miss_distance": {
                "astronomical": "0.3808375705",
                "lunar": "148.1458149245",
                "kilometers": "56972489.362774835",
                "miles": "35401063.320909323"
            },
            "orbiting_body": "Earth"
        },
        {
            "close_approach_date": "2020-08-10",
            "close_approach_date_full": "2020-Aug-10 18:20",
            "epoch_date_close_approach": 1597083600000,
            "relative_velocity": {
                "kilometers_per_second": "8.332654671",
                "kilometers_per_hour": "29997.5568154231",
                "miles_per_hour": "18639.31523345"
            },
            "miss_distance": {
                "astronomical": "0.0153178271",
                "lunar": "5.9586347419",
                "kilometers": "2291514.307188277",
                "miles": "1423880.9642491426"
            },
            "orbiting_body": "Earth"
        }
    ],
    "orbital_data": {
        "orbit_id": "2",
        "orbit_determination_date": "2020-08-14 07:24:31",
        "first_observation_date": "2020-08-10",
        "last_observation_date": "2020-08-13",
        "data_arc_in_days": 3,
        "observations_used": 19,
        "orbit_uncertainty": "8",
        "minimum_orbit_intersection": ".014634",
        "jupiter_tisserand_invariant": "3.308",
        "epoch_osculation": "2459072.5",
        "eccentricity": ".5646525806093478",
        "semi_major_axis": "2.361581767623202",
        "inclination": "6.613208555339742",
        "ascending_node_longitude": "317.8252329128618",
        "orbital_period": "1325.570735708947",
        "perihelion_distance": "1.028108528214776",
        "perihelion_argument": "357.2886002090957",
        "aphelion_distance": "3.695055007031628",
        "perihelion_time": "2459069.704017851482",
        "mean_anomaly": ".7593359949427001",
        "mean_motion": ".2715811312833966",
        "equinox": "J2000",
        "orbit_class": {
            "orbit_class_type": "AMO",
            "orbit_class_description": "Near-Earth asteroid orbits similar to that of 1221 Amor",
            "orbit_class_range": "1.017 AU < q (perihelion) < 1.3 AU"
        }
    },
    "is_sentry_object": false
}